OBJECT_NAME,OBJECT_ID,EPOCH,MEAN_MOTION,ECCENTRICITY,INCLINATION,RA_OF_ASC_NODE,ARG_OF_PERICENTER,MEAN_ANOMALY,EPHEMERIS_TYPE,CLASSIFICATION_TYPE,NORAD_CAT_ID,ELEMENT_SET_NO,REV_AT_EPOCH,BSTAR,MEAN_MOTION_DOT,MEAN_MOTION_DDOT
NORBI,2020-068J,2026-07-20T07:02:35.359584,15.49765674,.00085896,97.8618,220.2102,128.6137,231.5884,0,U,46494,999,32133,.25925683E-3,.14332E-3,0
SALSAT,2020-068K,2026-07-19T23:26:01.225248,15.30211220,.00097251,97.8865,206.0496,176.0322,184.0997,0,U,46495,999,32037,.14328943E-3,.4107E-4,0
ICEYE-X6,2020-068M,2026-07-20T05:50:48.765408,15.04682097,.00067654,98.0993,196.5016,355.4462,4.6700,0,U,46497,999,31820,.94113004E-4,.1256E-4,0
NETSAT-4,2020-068U,2026-07-20T07:09:27.885888,15.44862038,.00054022,97.8610,212.2265,175.3559,184.7739,0,U,46504,999,32088,.22118937E-3,.10287E-3,0
NETSAT-3,2020-068V,2026-07-20T00:07:38.989632,15.43709807,.00044227,97.8662,210.0865,191.3904,168.7244,0,U,46505,999,32074,.23434106E-3,.10484E-3,0
NETSAT-1,2020-068W,2026-07-20T06:01:20.129088,15.35314629,.00027674,97.8763,204.2840,233.3172,126.7816,0,U,46506,999,32037,.19913427E-3,.674E-4,0
NETSAT-2,2020-068X,2026-07-20T06:56:21.168096,15.47303503,.00028987,97.8622,212.2399,187.9093,172.2110,0,U,46507,999,32085,.26687546E-3,.13521E-3,0
TIANQI-6,2020-076D,2026-07-20T06:09:17.796672,15.07368973,.00095336,34.9973,205.4756,102.7764,257.4012,0,U,46810,999,31357,.1098968E-3,.1667E-4,0
KSM1-C,2020-081B,2026-07-20T05:53:33.631296,15.27216674,.00017656,36.8934,214.7733,173.4281,186.6492,0,U,46906,999,31422,.1416222E-3,.3769E-4,0
KSM1-D,2020-081C,2026-07-20T07:00:15.710400,15.25132405,.0003626,36.8947,224.1448,191.5325,168.5341,0,U,46907,999,31415,.11551072E-3,.2864E-4,0
KSM1-A,2020-081H,2026-07-20T06:23:01.481568,15.26409544,.00039968,36.8943,217.2943,238.0370,121.9991,0,U,46912,999,31423,.12967711E-3,.3357E-4,0
R2,2020-081J,2026-07-20T05:36:37.951776,15.25858338,.00087504,36.8966,217.6477,209.2877,150.7383,0,U,46913,999,31703,.15138894E-3,.3873E-4,0
KSM1-B,2020-081K,2026-07-20T05:37:40.069920,15.24916691,.00055699,36.8998,225.1840,206.5469,153.4995,0,U,46914,999,31723,.1261243E-3,.3116E-4,0
GONETS-M 20,2020-091A,2026-07-20T06:01:43.061376,12.42895123,.00221896,82.5042,281.8850,108.5313,251.8180,0,U,47227,999,25518,.10053382E-2,.149E-5,0
GONETS-M 21,2020-091B,2026-07-20T05:24:19.476288,12.42887877,.00159643,82.4965,280.5879,121.7296,238.5342,0,U,47228,999,25517,.52760019E-3,.83E-6,0
GONETS-M 22,2020-091C,2026-07-20T06:41:17.128608,12.42894225,.00230467,82.5023,281.4687,103.9257,256.4388,0,U,47229,999,25513,.89628173E-3,.134E-5,0
CUBEL,2021-006AM,2026-07-20T03:12:01.806336,15.42118366,.00076014,97.2307,251.4241,68.3462,291.8594,0,U,47448,999,30483,.27512159E-3,.11704E-3,0
ARKTIKA-M 1,2021-016A,2026-07-14T09:46:38.558208,2.00611590,.7297332,63.2662,53.6722,270.0591,14.4994,0,U,47719,999,3933,0,-.301E-5,0
STARLINK-2342,2021-021Z,2026-07-20T08:00:01.999872,15.95533354,.00108253,53.1498,340.2514,312.5658,319.6854,0,U,47883,999,572,.7998537E-3,.326478E-2,.53327198E-4
GRUS-1B,2021-022C,2026-07-20T06:59:21.134976,14.98788798,.0014563,97.5333,83.3829,198.0911,161.9796,0,U,47934,999,29085,.12076981E-3,.1401E-4,0
UNISAT-7,2021-022P,2026-07-19T22:53:24.071712,15.41275309,.00072567,97.3848,106.2336,329.1355,30.9465,0,U,47945,999,29490,.20124073E-3,.8294E-4,0
GLOBAL-9,2021-023G,2026-07-19T23:41:44.420352,15.47734113,.00040425,44.9814,65.9997,200.0916,159.9816,0,U,47971,999,30002,.24887501E-3,.12836E-3,0
AII-BRAVO,2021-034C,2026-07-20T02:18:33.979104,15.03696158,.00067317,97.5604,255.2571,145.5882,214.5781,0,U,48270,999,28456,.19823868E-3,.2658E-4,0
TYVAK-182A,2021-034D,2026-07-20T03:30:35.078112,15.06426063,.0005268,97.5703,259.4942,199.7577,160.3447,0,U,48271,999,28479,.1179936E-3,.1678E-4,0
CSS (TIANHE),2021-035A,2026-07-20T03:36:22.101984,15.58213113,.00019156,41.4683,121.7978,306.7446,53.3216,0,U,48274,999,29831,.15004409E-3,.11348E-3,0
TYVAK-0130,2021-041BF,2026-07-20T01:56:23.305056,15.27976348,.0008423,52.9945,233.2740,277.7975,82.2067,0,U,48606,999,28541,.11992255E-3,.2967E-4,0
HAIYANG-2D,2021-043A,2026-07-20T06:12:51.844032,13.83373955,.00116229,65.9962,222.3627,265.1329,94.8412,0,U,48621,999,26112,.45323013E-4,-.31E-6,0
2021-050D,2021-050D,2026-07-20T07:22:45.031296,15.23623337,.00068968,97.3318,276.5932,137.5693,222.6079,0,U,48843,999,28400,.1141065E-3,.2664E-4,0
