NORBI                   
1 46494U 20068J   26201.29346481  .00014332  00000+0  25926-3 0  9990
2 46494  97.8618 220.2102 0008589 128.6137 231.5884 15.49765674321332
SALSAT                  
1 46495U 20068K   26200.97640307  .00004107  00000+0  14329-3 0  9993
2 46495  97.8865 206.0496 0009725 176.0322 184.0997 15.30211220320374
ICEYE-X6                
1 46497U 20068M   26201.24361997  .00001256  00000+0  94113-4 0  9993
2 46497  98.0993 196.5016 0006765 355.4462   4.6700 15.04682097318204
NETSAT-4                
1 46504U 20068U   26201.29823942  .00010287  00000+0  22119-3 0  9990
2 46504  97.8610 212.2265 0005402 175.3559 184.7739 15.44862038320889
NETSAT-3                
1 46505U 20068V   26201.00531238  .00010484  00000+0  23434-3 0  9994
2 46505  97.8662 210.0865 0004422 191.3904 168.7244 15.43709807320743
NETSAT-1                
1 46506U 20068W   26201.25092742  .00006740  00000+0  19913-3 0  9991
2 46506  97.8763 204.2840 0002767 233.3172 126.7816 15.35314629320371
NETSAT-2                
1 46507U 20068X   26201.28913389  .00013521  00000+0  26688-3 0  9996
2 46507  97.8622 212.2399 0002898 187.9093 172.2110 15.47303503320853
TIANQI-6                
1 46810U 20076D   26201.25645598  .00001667  00000+0  10990-3 0  9990
2 46810  34.9973 205.4756 0009533 102.7764 257.4012 15.07368973313571
KSM1-C                  
1 46906U 20081B   26201.24552814  .00003769  00000+0  14162-3 0  9999
2 46906  36.8934 214.7733 0001765 173.4281 186.6492 15.27216674314221
KSM1-D                  
1 46907U 20081C   26201.29184850  .00002864  00000+0  11551-3 0  9990
2 46907  36.8947 224.1448 0003626 191.5325 168.5341 15.25132405314153
KSM1-A                  
1 46912U 20081H   26201.26598937  .00003357  00000+0  12968-3 0  9999
2 46912  36.8943 217.2943 0003996 238.0370 121.9991 15.26409544314230
R2                      
1 46913U 20081J   26201.23377259  .00003873  00000+0  15139-3 0  9995
2 46913  36.8966 217.6477 0008750 209.2877 150.7383 15.25858338317031
KSM1-B                  
1 46914U 20081K   26201.23449155  .00003116  00000+0  12612-3 0  9994
2 46914  36.8998 225.1840 0005569 206.5469 153.4995 15.24916691317234
GONETS-M 20             
1 47227U 20091A   26201.25119284  .00000149  00000+0  10053-2 0  9991
2 47227  82.5042 281.8850 0022189 108.5313 251.8180 12.42895123255183
GONETS-M 21             
1 47228U 20091B   26201.22522542  .00000083  00000+0  52760-3 0  9993
2 47228  82.4965 280.5879 0015964 121.7296 238.5342 12.42887877255172
GONETS-M 22             
1 47229U 20091C   26201.27867047  .00000134  00000+0  89628-3 0  9991
2 47229  82.5023 281.4687 0023046 103.9257 256.4388 12.42894225255135
CUBEL                   
1 47448U 21006AM  26201.13335424  .00011704  00000+0  27512-3 0  9994
2 47448  97.2307 251.4241 0007601  68.3462 291.8594 15.42118366304832
ARKTIKA-M 1             
1 47719U 21016A   26195.40739072 -.00000301  00000+0  00000+0 0  9996
2 47719  63.2662  53.6722 7297332 270.0591  14.4994  2.00611590 39330
STARLINK-2342           
1 47883U 21021Z   26201.33335648  .00326478  53327-4  79985-3 0  9997
2 47883  53.1498 340.2514 0010825 312.5658 319.6854 15.95533354  5720
GRUS-1B                 
1 47934U 21022C   26201.29121684  .00001401  00000+0  12077-3 0  9993
2 47934  97.5333  83.3829 0014563 198.0911 161.9796 14.98788798290852
UNISAT-7                
1 47945U 21022P   26200.95375083  .00008294  00000+0  20124-3 0  9990
2 47945  97.3848 106.2336 0007256 329.1355  30.9465 15.41275309294907
GLOBAL-9                
1 47971U 21023G   26200.98731968  .00012836  00000+0  24888-3 0  9999
2 47971  44.9814  65.9997 0004042 200.0916 159.9816 15.47734113300023
AII-BRAVO               
1 48270U 21034C   26201.09622661  .00002658  00000+0  19824-3 0  9991
2 48270  97.5604 255.2571 0006731 145.5882 214.5781 15.03696158284568
TYVAK-182A              
1 48271U 21034D   26201.14623933  .00001678  00000+0  11799-3 0  9995
2 48271  97.5703 259.4942 0005268 199.7577 160.3447 15.06426063284794
CSS (TIANHE)            
1 48274U 21035A   26201.15025581  .00011348  00000+0  15004-3 0  9993
2 48274  41.4683 121.7978 0001915 306.7446  53.3216 15.58213113298317
TYVAK-0130              
1 48606U 21041BF  26201.08082529  .00002967  00000+0  11992-3 0  9995
2 48606  52.9945 233.2740 0008423 277.7975  82.2067 15.27976348285419
HAIYANG-2D              
1 48621U 21043A   26201.25893338 -.00000031  00000+0  45323-4 0  9998
2 48621  65.9962 222.3627 0011622 265.1329  94.8412 13.83373955261121
2021-050D               
1 48843U 21050D   26201.30746564  .00002664  00000+0  11411-3 0  9999
2 48843  97.3318 276.5932 0006896 137.5693 222.6079 15.23623337284004
